H1 CPF  1  HTS 2022  8 13 12  7251 larets           NONE
H2  0304206 5557    27944 2022 08 13  0  0  0 2022 08 18  0  0  0   180 1 1  0 0 0
H5  0.0560 
H9 
10 0 59804  72360.00000  0     798675.253   -4854993.569    5047326.676
10 0 59804  72540.00000  0     590008.778   -5751622.092    4036572.112
10 0 59804  72720.00000  0     339092.092   -6432175.259    2877329.324
10 0 59804  72900.00000  0      61101.294   -6870949.081    1612263.337
10 0 59804  73080.00000  0    -227249.930   -7051589.352     287932.630
10 0 59804  73260.00000  0    -508588.685   -6967733.443   -1046979.940
10 0 59804  73440.00000  0    -765795.462   -6623219.819   -2343523.859
10 0 59804  73620.00000  0    -982898.693   -6031864.999   -3554324.855
10 0 59804  73800.00000  0   -1145907.800   -5216834.220   -4635339.756
10 0 59804  73980.00000  0   -1243541.953   -4209642.354   -5547446.504
10 0 59804  74160.00000  0   -1267820.453   -3048853.825   -6257808.155
10 0 59804  74340.00000  0   -1214491.577   -1778552.427   -6740979.397
10 0 59804  74520.00000  0   -1083286.787    -446648.868   -6979732.597
10 0 59804  74700.00000  0    -877995.505     896905.927   -6965597.455
10 0 59804  74880.00000  0    -606357.809    2201944.949   -6699117.020
10 0 59804  75060.00000  0    -279781.122    3419898.841   -6189825.517
10 0 59804  75240.00000  0      87113.232    4505559.490   -5455949.495
10 0 59804  75420.00000  0     477103.369    5418743.213   -4523824.671
10 0 59804  75600.00000  0     871119.358    6125800.357   -3427032.774
10 0 59804  75780.00000  0    1249110.520    6600912.034   -2205264.190
10 0 59804  75960.00000  0    1590992.882    6827112.235    -902930.595
10 0 59804  76140.00000  0    1877634.358    6796977.456     432436.649
10 0 59804  76320.00000  0    2091826.089    6512932.223    1751942.145
10 0 59804  76500.00000  0    2219186.900    5987149.034    3007157.006
10 0 59804  76680.00000  0    2248954.686    5241044.544    4151945.853
10 0 59804  76860.00000  0    2174620.023    4304391.228    5144212.698
10 0 59804  77040.00000  0    1994364.606    3214080.763    5947481.773
10 0 59804  77220.00000  0    1711285.970    2012618.211    6532238.813
10 0 59804  77400.00000  0    1333401.999     746422.208    6877005.506
10 0 59804  77580.00000  0     873431.587    -536003.069    6969108.149
10 0 59804  77760.00000  0     348362.336   -1785943.975    6805130.926
10 0 59804  77940.00000  0    -221183.875   -2956347.873    6391045.647
10 0 59804  78120.00000  0    -811766.098   -4003619.484    5742003.275
10 0 59804  78300.00000  0   -1398084.722   -4889271.696    4881796.340
10 0 59804  78480.00000  0   -1954059.791   -5581384.287    3842018.128
10 0 59804  78660.00000  0   -2453989.272   -6055817.804    2660914.310
10 0 59804  78840.00000  0   -2873727.613   -6297107.074    1381958.128
10 0 59804  79020.00000  0   -3191824.100   -6298992.257      52210.941
10 0 59804  79200.00000  0   -3390561.807   -6064562.269   -1279465.529
10 0 59804  79380.00000  0   -3456843.205   -5606000.827   -2564265.513
10 0 59804  79560.00000  0   -3382876.629   -4943949.525   -3755277.009
10 0 59804  79740.00000  0   -3166628.041   -4106528.829   -4809214.246
10 0 59804  79920.00000  0   -2812021.775   -3128083.273   -5687969.284
10 0 59804  80100.00000  0   -2328892.821   -2047724.297   -6359933.493
10 0 59804  80280.00000  0   -1732698.571    -907741.699   -6801056.916
10 0 59804  80460.00000  0   -1044006.097     248048.371   -6995623.286
10 0 59804  80640.00000  0    -287782.834    1375953.455   -6936736.658
10 0 59804  80820.00000  0     507488.386    2434005.095   -6626530.102
10 0 59804  81000.00000  0    1310847.550    3383473.024   -6076098.523
10 0 59804  81180.00000  0    2090027.656    4190256.724   -5305148.551
10 0 59804  81360.00000  0    2812718.703    4826108.930   -4341364.645
10 0 59804  81540.00000  0    3447887.016    5269655.266   -3219496.595
10 0 59804  81720.00000  0    3967100.653    5507165.298   -1980176.305
10 0 59804  81900.00000  0    4345803.877    5533032.589    -668488.608
10 0 59804  82080.00000  0    4564473.381    5349932.153     667661.492
10 0 59804  82260.00000  0    4609592.399    4968633.763    1979322.916
10 0 59804  82440.00000  0    4474387.254    4407477.948    3218333.770
10 0 59804  82620.00000  0    4159285.612    3691534.724    4339145.627
10 0 59804  82800.00000  0    3672062.910    2851481.736    5300542.104
10 0 59804  82980.00000  0    3027675.337    1922268.540    6067182.038
10 0 59804  83160.00000  0    2247782.445     941631.667    6610899.881
10 0 59804  83340.00000  0    1359994.959     -51463.899    6911723.344
10 0 59804  83520.00000  0     396874.660   -1018387.208    6958589.519
10 0 59804  83700.00000  0    -605278.133   -1922358.306    6749743.680
10 0 59804  83880.00000  0   -1607807.763   -2729863.615    6292803.582
10 0 59804  84060.00000  0   -2571202.929   -3411915.005    5604491.640
10 0 59804  84240.00000  0   -3456667.802   -3945116.138    4710053.629
10 0 59804  84420.00000  0   -4227719.352   -4312499.276    3642355.446
10 0 59804  84600.00000  0   -4851725.827   -4504088.680    2440676.638
10 0 59804  84780.00000  0   -5301318.208   -4517169.676    1149249.080
10 0 59804  84960.00000  0   -5555608.274   -4356245.589    -184413.071
10 0 59804  85140.00000  0   -5601145.092   -4032680.777   -1511319.961
10 0 59804  85320.00000  0   -5432557.445   -3564049.286   -2782868.798
10 0 59804  85500.00000  0   -5052845.919   -2973225.164   -3952668.950
10 0 59804  85680.00000  0   -4473323.553   -2287275.157   -4978243.721
10 0 59804  85860.00000  0   -3713220.270   -1536216.347   -5822545.893
10 0 59804  86040.00000  0   -2798979.879    -751702.624   -6455235.971
10 0 59804  86220.00000  0   -1763291.748      34298.474   -6853690.346
10 0 59805      0.00000  0    -643902.126     790780.902   -7003723.529
10 0 59805    180.00000  0     517744.066    1488884.317   -6900025.653
10 0 59805    360.00000  0    1677993.422    2102957.288   -6546324.389
10 0 59805    540.00000  0    2792576.971    2611474.578   -5955269.762
10 0 59805    720.00000  0    3818259.800    2997782.335   -5148030.628
10 0 59805    900.00000  0    4714495.871    3250648.081   -4153612.199
10 0 59805   1080.00000  0    5445041.237    3364598.686   -3007895.546
10 0 59805   1260.00000  0    5979454.606    3340026.350   -1752408.277
10 0 59805   1440.00000  0    6294417.796    3183054.003    -432856.793
10 0 59805   1620.00000  0    6374803.001    2905153.936     902536.101
10 0 59805   1800.00000  0    6214422.949    2522532.125    2204821.568
10 0 59805   1980.00000  0    5816417.071    2055311.074    3426165.811
10 0 59805   2160.00000  0    5193245.626    1526547.441    4521662.317
10 0 59805   2340.00000  0    4366286.261     961135.953    5451024.787
10 0 59805   2520.00000  0    3365062.936     384659.226    6180089.257
10 0 59805   2700.00000  0    2226139.984    -177759.408    6682070.258
10 0 59805   2880.00000  0     991744.226    -702542.275    6938526.401
10 0 59805   3060.00000  0    -291832.047   -1168644.061    6940023.774
10 0 59805   3240.00000  0   -1575991.648   -1558400.443    6686471.172
10 0 59805   3420.00000  0   -2811687.341   -1858205.624    6187123.101
10 0 59805   3600.00000  0   -3951309.743   -2058993.862    5460262.153
10 0 59805   3780.00000  0   -4950559.564   -2156517.178    4532561.033
10 0 59805   3960.00000  0   -5770222.252   -2151404.203    3438118.429
10 0 59805   4140.00000  0   -6377762.137   -2048992.123    2217205.169
10 0 59805   4320.00000  0   -6748670.595   -1858944.740     914764.543
10 0 59805   4500.00000  0   -6867496.877   -1594672.466    -421290.357
10 0 59805   4680.00000  0   -6728496.227   -1272580.227   -1741901.686
10 0 59805   4860.00000  0   -6335864.272    -911188.018   -2998727.074
10 0 59805   5040.00000  0   -5703553.361    -530175.796   -4145946.662
10 0 59805   5220.00000  0   -4854691.244    -149400.771   -5141939.991
10 0 59805   5400.00000  0   -3820643.000     212061.878   -5950763.866
10 0 59805   5580.00000  0   -2639773.670     536805.404   -6543383.016
10 0 59805   5760.00000  0   -1355980.878     809867.427   -6898624.284
10 0 59805   5940.00000  0     -17060.925    1019368.108   -7003849.912
10 0 59805   6120.00000  0    1327034.355    1156992.942   -6855345.990
10 0 59805   6300.00000  0    2626005.104    1218307.121   -6458438.889
10 0 59805   6480.00000  0    3831036.393    1202895.044   -5827326.302
10 0 59805   6660.00000  0    4896596.294    1114318.828   -4984622.386
10 0 59805   6840.00000  0    5782151.428     959897.493   -3960626.704
10 0 59805   7020.00000  0    6453742.572     750312.804   -2792314.055
10 0 59805   7200.00000  0    6885351.118     499052.822   -1522063.481
10 0 59805   7380.00000  0    7059991.132     221714.607    -196152.428
10 0 59805   7560.00000  0    6970455.138     -64803.691    1136933.982
10 0 59805   7740.00000  0    6619670.149    -343181.761    2428307.840
10 0 59805   7920.00000  0    6020632.547    -596583.426    3630524.094
10 0 59805   8100.00000  0    5195915.249    -809540.018    4699375.453
10 0 59805   8280.00000  0    4176780.738    -968763.728    5595555.476
10 0 59805   8460.00000  0    3001940.761   -1063848.709    6286121.631
10 0 59805   8640.00000  0    1716031.183   -1087824.424    6745701.615
10 0 59805   8820.00000  0     367872.347   -1037540.645    6957411.258
10 0 59805   9000.00000  0    -991418.831    -913865.428    6913457.242
10 0 59805   9180.00000  0   -2310387.106    -721688.360    6615411.252
10 0 59805   9360.00000  0   -3539200.861    -469728.067    6074159.322
10 0 59805   9540.00000  0   -4631559.877    -170150.127    5309528.634
10 0 59805   9720.00000  0   -5546486.281     161989.978    4349587.834
10 0 59805   9900.00000  0   -6249920.979     509457.870    3229630.318
10 0 59805  10080.00000  0   -6716053.413     853676.004    1990873.609
10 0 59805  10260.00000  0   -6928325.175    1175645.142     678917.050
99
